<?xml version="1.0" encoding="UTF-8"?>
<gpx version="1.1" creator="redevance-cdl (exemple)" xmlns="http://www.topografix.com/GPX/1/1">
  <metadata><name>Trail d'exemple de Saziley (tracé fictif)</name><desc>Tracé fictif fourni pour tester le site. Ne correspond à aucun événement réel.</desc></metadata>
  <trk><name>Trail d'exemple de Saziley (tracé fictif)</name><trkseg>
    <trkpt lat="-12.957500" lon="45.165500"/>
    <trkpt lat="-12.957638" lon="45.165619"/>
    <trkpt lat="-12.957779" lon="45.165736"/>
    <trkpt lat="-12.957922" lon="45.165851"/>
    <trkpt lat="-12.958064" lon="45.165966"/>
    <trkpt lat="-12.958205" lon="45.166083"/>
    <trkpt lat="-12.958343" lon="45.166203"/>
    <trkpt lat="-12.958477" lon="45.166327"/>
    <trkpt lat="-12.958607" lon="45.166456"/>
    <trkpt lat="-12.958734" lon="45.166589"/>
    <trkpt lat="-12.958857" lon="45.166725"/>
    <trkpt lat="-12.958981" lon="45.166862"/>
    <trkpt lat="-12.959106" lon="45.166996"/>
    <trkpt lat="-12.959234" lon="45.167127"/>
    <trkpt lat="-12.959369" lon="45.167251"/>
    <trkpt lat="-12.959509" lon="45.167368"/>
    <trkpt lat="-12.959657" lon="45.167477"/>
    <trkpt lat="-12.959811" lon="45.167579"/>
    <trkpt lat="-12.959969" lon="45.167676"/>
    <trkpt lat="-12.960128" lon="45.167772"/>
    <trkpt lat="-12.960286" lon="45.167869"/>
    <trkpt lat="-12.960440" lon="45.167971"/>
    <trkpt lat="-12.960587" lon="45.168081"/>
    <trkpt lat="-12.960725" lon="45.168201"/>
    <trkpt lat="-12.960854" lon="45.168331"/>
    <trkpt lat="-12.960975" lon="45.168471"/>
    <trkpt lat="-12.961089" lon="45.168617"/>
    <trkpt lat="-12.961200" lon="45.168768"/>
    <trkpt lat="-12.961310" lon="45.168920"/>
    <trkpt lat="-12.961423" lon="45.169067"/>
    <trkpt lat="-12.961543" lon="45.169208"/>
    <trkpt lat="-12.961671" lon="45.169339"/>
    <trkpt lat="-12.961809" lon="45.169459"/>
    <trkpt lat="-12.961957" lon="45.169568"/>
    <trkpt lat="-12.962113" lon="45.169668"/>
    <trkpt lat="-12.962274" lon="45.169761"/>
    <trkpt lat="-12.962438" lon="45.169852"/>
    <trkpt lat="-12.962601" lon="45.169944"/>
    <trkpt lat="-12.962760" lon="45.170040"/>
    <trkpt lat="-12.962911" lon="45.170145"/>
    <trkpt lat="-12.963054" lon="45.170259"/>
    <trkpt lat="-12.963189" lon="45.170383"/>
    <trkpt lat="-12.963315" lon="45.170516"/>
    <trkpt lat="-12.963435" lon="45.170656"/>
    <trkpt lat="-12.963551" lon="45.170801"/>
    <trkpt lat="-12.963667" lon="45.170946"/>
    <trkpt lat="-12.963784" lon="45.171089"/>
    <trkpt lat="-12.963907" lon="45.171227"/>
    <trkpt lat="-12.964035" lon="45.171358"/>
    <trkpt lat="-12.964170" lon="45.171482"/>
    <trkpt lat="-12.964311" lon="45.171599"/>
    <trkpt lat="-12.964457" lon="45.171709"/>
    <trkpt lat="-12.964606" lon="45.171817"/>
    <trkpt lat="-12.964756" lon="45.171923"/>
    <trkpt lat="-12.964905" lon="45.172030"/>
    <trkpt lat="-12.965051" lon="45.172141"/>
    <trkpt lat="-12.965194" lon="45.172256"/>
    <trkpt lat="-12.965332" lon="45.172375"/>
    <trkpt lat="-12.965467" lon="45.172498"/>
    <trkpt lat="-12.965600" lon="45.172624"/>
    <trkpt lat="-12.965733" lon="45.172750"/>
    <trkpt lat="-12.965865" lon="45.172876"/>
    <trkpt lat="-12.966000" lon="45.173000"/>
    <trkpt lat="-12.966138" lon="45.173121"/>
    <trkpt lat="-12.966272" lon="45.173245"/>
    <trkpt lat="-12.966405" lon="45.173372"/>
    <trkpt lat="-12.966537" lon="45.173500"/>
    <trkpt lat="-12.966669" lon="45.173627"/>
    <trkpt lat="-12.966803" lon="45.173752"/>
    <trkpt lat="-12.966941" lon="45.173873"/>
    <trkpt lat="-12.967084" lon="45.173988"/>
    <trkpt lat="-12.967231" lon="45.174098"/>
    <trkpt lat="-12.967382" lon="45.174204"/>
    <trkpt lat="-12.967535" lon="45.174307"/>
    <trkpt lat="-12.967688" lon="45.174410"/>
    <trkpt lat="-12.967839" lon="45.174516"/>
    <trkpt lat="-12.967985" lon="45.174628"/>
    <trkpt lat="-12.968125" lon="45.174747"/>
    <trkpt lat="-12.968257" lon="45.174874"/>
    <trkpt lat="-12.968382" lon="45.175010"/>
    <trkpt lat="-12.968500" lon="45.175152"/>
    <trkpt lat="-12.968616" lon="45.175299"/>
    <trkpt lat="-12.968730" lon="45.175447"/>
    <trkpt lat="-12.968846" lon="45.175592"/>
    <trkpt lat="-12.968968" lon="45.175731"/>
    <trkpt lat="-12.969098" lon="45.175861"/>
    <trkpt lat="-12.969237" lon="45.175981"/>
    <trkpt lat="-12.969385" lon="45.176090"/>
    <trkpt lat="-12.969541" lon="45.176189"/>
    <trkpt lat="-12.969703" lon="45.176282"/>
    <trkpt lat="-12.969869" lon="45.176372"/>
    <trkpt lat="-12.970033" lon="45.176462"/>
    <trkpt lat="-12.970194" lon="45.176557"/>
    <trkpt lat="-12.970347" lon="45.176660"/>
    <trkpt lat="-12.970491" lon="45.176773"/>
    <trkpt lat="-12.970626" lon="45.176898"/>
    <trkpt lat="-12.970752" lon="45.177032"/>
    <trkpt lat="-12.970870" lon="45.177175"/>
    <trkpt lat="-12.970984" lon="45.177323"/>
    <trkpt lat="-12.971097" lon="45.177473"/>
    <trkpt lat="-12.971211" lon="45.177620"/>
    <trkpt lat="-12.971331" lon="45.177762"/>
    <trkpt lat="-12.971458" lon="45.177896"/>
    <trkpt lat="-12.971592" lon="45.178020"/>
    <trkpt lat="-12.971735" lon="45.178135"/>
    <trkpt lat="-12.971884" lon="45.178243"/>
    <trkpt lat="-12.972038" lon="45.178345"/>
    <trkpt lat="-12.972194" lon="45.178445"/>
    <trkpt lat="-12.972350" lon="45.178546"/>
    <trkpt lat="-12.972502" lon="45.178650"/>
    <trkpt lat="-12.972650" lon="45.178760"/>
    <trkpt lat="-12.972792" lon="45.178875"/>
    <trkpt lat="-12.972930" lon="45.178997"/>
    <trkpt lat="-12.973063" lon="45.179123"/>
    <trkpt lat="-12.973193" lon="45.179253"/>
    <trkpt lat="-12.973322" lon="45.179383"/>
    <trkpt lat="-12.973452" lon="45.179513"/>
    <trkpt lat="-12.973585" lon="45.179640"/>
    <trkpt lat="-12.973720" lon="45.179763"/>
    <trkpt lat="-12.973859" lon="45.179883"/>
    <trkpt lat="-12.974000" lon="45.180000"/>
    <trkpt lat="-12.974119" lon="45.180141"/>
    <trkpt lat="-12.974238" lon="45.180283"/>
    <trkpt lat="-12.974360" lon="45.180422"/>
    <trkpt lat="-12.974484" lon="45.180559"/>
    <trkpt lat="-12.974612" lon="45.180692"/>
    <trkpt lat="-12.974744" lon="45.180822"/>
    <trkpt lat="-12.974878" lon="45.180950"/>
    <trkpt lat="-12.975012" lon="45.181078"/>
    <trkpt lat="-12.975146" lon="45.181206"/>
    <trkpt lat="-12.975276" lon="45.181337"/>
    <trkpt lat="-12.975402" lon="45.181473"/>
    <trkpt lat="-12.975521" lon="45.181614"/>
    <trkpt lat="-12.975634" lon="45.181762"/>
    <trkpt lat="-12.975741" lon="45.181914"/>
    <trkpt lat="-12.975844" lon="45.182069"/>
    <trkpt lat="-12.975946" lon="45.182226"/>
    <trkpt lat="-12.976050" lon="45.182381"/>
    <trkpt lat="-12.976158" lon="45.182532"/>
    <trkpt lat="-12.976274" lon="45.182677"/>
    <trkpt lat="-12.976398" lon="45.182814"/>
    <trkpt lat="-12.976531" lon="45.182942"/>
    <trkpt lat="-12.976673" lon="45.183063"/>
    <trkpt lat="-12.976822" lon="45.183178"/>
    <trkpt lat="-12.976974" lon="45.183290"/>
    <trkpt lat="-12.977125" lon="45.183402"/>
    <trkpt lat="-12.977273" lon="45.183518"/>
    <trkpt lat="-12.977413" lon="45.183640"/>
    <trkpt lat="-12.977544" lon="45.183771"/>
    <trkpt lat="-12.977664" lon="45.183912"/>
    <trkpt lat="-12.977773" lon="45.184062"/>
    <trkpt lat="-12.977874" lon="45.184220"/>
    <trkpt lat="-12.977968" lon="45.184384"/>
    <trkpt lat="-12.978061" lon="45.184549"/>
    <trkpt lat="-12.978155" lon="45.184713"/>
    <trkpt lat="-12.978254" lon="45.184872"/>
    <trkpt lat="-12.978362" lon="45.185023"/>
    <trkpt lat="-12.978481" lon="45.185165"/>
    <trkpt lat="-12.978610" lon="45.185298"/>
    <trkpt lat="-12.978748" lon="45.185422"/>
    <trkpt lat="-12.978894" lon="45.185539"/>
    <trkpt lat="-12.979045" lon="45.185652"/>
    <trkpt lat="-12.979196" lon="45.185764"/>
    <trkpt lat="-12.979345" lon="45.185879"/>
    <trkpt lat="-12.979487" lon="45.186000"/>
    <trkpt lat="-12.979622" lon="45.186127"/>
    <trkpt lat="-12.979747" lon="45.186263"/>
    <trkpt lat="-12.979864" lon="45.186406"/>
    <trkpt lat="-12.979974" lon="45.186556"/>
    <trkpt lat="-12.980079" lon="45.186710"/>
    <trkpt lat="-12.980183" lon="45.186865"/>
    <trkpt lat="-12.980287" lon="45.187020"/>
    <trkpt lat="-12.980395" lon="45.187172"/>
    <trkpt lat="-12.980507" lon="45.187319"/>
    <trkpt lat="-12.980626" lon="45.187460"/>
    <trkpt lat="-12.980751" lon="45.187597"/>
    <trkpt lat="-12.980880" lon="45.187729"/>
    <trkpt lat="-12.981013" lon="45.187858"/>
    <trkpt lat="-12.981146" lon="45.187987"/>
    <trkpt lat="-12.981279" lon="45.188116"/>
    <trkpt lat="-12.981409" lon="45.188247"/>
    <trkpt lat="-12.981536" lon="45.188382"/>
    <trkpt lat="-12.981660" lon="45.188519"/>
    <trkpt lat="-12.981781" lon="45.188659"/>
    <trkpt lat="-12.981900" lon="45.188800"/>
    <trkpt lat="-12.981839" lon="45.188975"/>
    <trkpt lat="-12.981775" lon="45.189148"/>
    <trkpt lat="-12.981705" lon="45.189319"/>
    <trkpt lat="-12.981629" lon="45.189488"/>
    <trkpt lat="-12.981548" lon="45.189654"/>
    <trkpt lat="-12.981461" lon="45.189819"/>
    <trkpt lat="-12.981374" lon="45.189983"/>
    <trkpt lat="-12.981289" lon="45.190148"/>
    <trkpt lat="-12.981209" lon="45.190315"/>
    <trkpt lat="-12.981139" lon="45.190486"/>
    <trkpt lat="-12.981078" lon="45.190661"/>
    <trkpt lat="-12.981029" lon="45.190840"/>
    <trkpt lat="-12.980987" lon="45.191022"/>
    <trkpt lat="-12.980951" lon="45.191207"/>
    <trkpt lat="-12.980915" lon="45.191392"/>
    <trkpt lat="-12.980875" lon="45.191575"/>
    <trkpt lat="-12.980827" lon="45.191755"/>
    <trkpt lat="-12.980766" lon="45.191929"/>
    <trkpt lat="-12.980691" lon="45.192099"/>
    <trkpt lat="-12.980603" lon="45.192262"/>
    <trkpt lat="-12.980504" lon="45.192422"/>
    <trkpt lat="-12.980398" lon="45.192578"/>
    <trkpt lat="-12.980291" lon="45.192734"/>
    <trkpt lat="-12.980187" lon="45.192892"/>
    <trkpt lat="-12.980091" lon="45.193052"/>
    <trkpt lat="-12.980007" lon="45.193218"/>
    <trkpt lat="-12.979935" lon="45.193388"/>
    <trkpt lat="-12.979877" lon="45.193564"/>
    <trkpt lat="-12.979829" lon="45.193744"/>
    <trkpt lat="-12.979787" lon="45.193926"/>
    <trkpt lat="-12.979747" lon="45.194109"/>
    <trkpt lat="-12.979706" lon="45.194292"/>
    <trkpt lat="-12.979658" lon="45.194472"/>
    <trkpt lat="-12.979602" lon="45.194648"/>
    <trkpt lat="-12.979536" lon="45.194821"/>
    <trkpt lat="-12.979463" lon="45.194991"/>
    <trkpt lat="-12.979383" lon="45.195158"/>
    <trkpt lat="-12.979301" lon="45.195324"/>
    <trkpt lat="-12.979219" lon="45.195490"/>
    <trkpt lat="-12.979140" lon="45.195658"/>
    <trkpt lat="-12.979067" lon="45.195828"/>
    <trkpt lat="-12.979000" lon="45.196000"/>
    <trkpt lat="-12.978842" lon="45.195906"/>
    <trkpt lat="-12.978687" lon="45.195808"/>
    <trkpt lat="-12.978531" lon="45.195710"/>
    <trkpt lat="-12.978372" lon="45.195619"/>
    <trkpt lat="-12.978208" lon="45.195539"/>
    <trkpt lat="-12.978037" lon="45.195472"/>
    <trkpt lat="-12.977860" lon="45.195415"/>
    <trkpt lat="-12.977680" lon="45.195367"/>
    <trkpt lat="-12.977500" lon="45.195319"/>
    <trkpt lat="-12.977321" lon="45.195266"/>
    <trkpt lat="-12.977149" lon="45.195202"/>
    <trkpt lat="-12.976983" lon="45.195124"/>
    <trkpt lat="-12.976825" lon="45.195031"/>
    <trkpt lat="-12.976673" lon="45.194926"/>
    <trkpt lat="-12.976525" lon="45.194814"/>
    <trkpt lat="-12.976377" lon="45.194701"/>
    <trkpt lat="-12.976226" lon="45.194593"/>
    <trkpt lat="-12.976070" lon="45.194496"/>
    <trkpt lat="-12.975909" lon="45.194410"/>
    <trkpt lat="-12.975742" lon="45.194335"/>
    <trkpt lat="-12.975571" lon="45.194267"/>
    <trkpt lat="-12.975400" lon="45.194200"/>
    <trkpt lat="-12.975381" lon="45.194011"/>
    <trkpt lat="-12.975356" lon="45.193823"/>
    <trkpt lat="-12.975322" lon="45.193636"/>
    <trkpt lat="-12.975281" lon="45.193450"/>
    <trkpt lat="-12.975234" lon="45.193265"/>
    <trkpt lat="-12.975185" lon="45.193080"/>
    <trkpt lat="-12.975139" lon="45.192895"/>
    <trkpt lat="-12.975100" lon="45.192709"/>
    <trkpt lat="-12.975072" lon="45.192521"/>
    <trkpt lat="-12.975057" lon="45.192331"/>
    <trkpt lat="-12.975055" lon="45.192140"/>
    <trkpt lat="-12.975061" lon="45.191947"/>
    <trkpt lat="-12.975073" lon="45.191754"/>
    <trkpt lat="-12.975083" lon="45.191560"/>
    <trkpt lat="-12.975086" lon="45.191368"/>
    <trkpt lat="-12.975078" lon="45.191177"/>
    <trkpt lat="-12.975055" lon="45.190989"/>
    <trkpt lat="-12.975016" lon="45.190803"/>
    <trkpt lat="-12.974964" lon="45.190618"/>
    <trkpt lat="-12.974903" lon="45.190435"/>
    <trkpt lat="-12.974838" lon="45.190253"/>
    <trkpt lat="-12.974774" lon="45.190070"/>
    <trkpt lat="-12.974718" lon="45.189887"/>
    <trkpt lat="-12.974672" lon="45.189702"/>
    <trkpt lat="-12.974639" lon="45.189514"/>
    <trkpt lat="-12.974618" lon="45.189326"/>
    <trkpt lat="-12.974605" lon="45.189136"/>
    <trkpt lat="-12.974598" lon="45.188945"/>
    <trkpt lat="-12.974590" lon="45.188754"/>
    <trkpt lat="-12.974579" lon="45.188564"/>
    <trkpt lat="-12.974560" lon="45.188375"/>
    <trkpt lat="-12.974534" lon="45.188187"/>
    <trkpt lat="-12.974500" lon="45.188000"/>
    <trkpt lat="-12.974552" lon="45.187820"/>
    <trkpt lat="-12.974604" lon="45.187640"/>
    <trkpt lat="-12.974654" lon="45.187459"/>
    <trkpt lat="-12.974700" lon="45.187277"/>
    <trkpt lat="-12.974741" lon="45.187094"/>
    <trkpt lat="-12.974776" lon="45.186910"/>
    <trkpt lat="-12.974806" lon="45.186724"/>
    <trkpt lat="-12.974834" lon="45.186538"/>
    <trkpt lat="-12.974862" lon="45.186352"/>
    <trkpt lat="-12.974894" lon="45.186167"/>
    <trkpt lat="-12.974932" lon="45.185983"/>
    <trkpt lat="-12.974979" lon="45.185802"/>
    <trkpt lat="-12.975036" lon="45.185623"/>
    <trkpt lat="-12.975102" lon="45.185446"/>
    <trkpt lat="-12.975175" lon="45.185271"/>
    <trkpt lat="-12.975253" lon="45.185097"/>
    <trkpt lat="-12.975329" lon="45.184923"/>
    <trkpt lat="-12.975401" lon="45.184748"/>
    <trkpt lat="-12.975464" lon="45.184570"/>
    <trkpt lat="-12.975514" lon="45.184390"/>
    <trkpt lat="-12.975552" lon="45.184206"/>
    <trkpt lat="-12.975577" lon="45.184019"/>
    <trkpt lat="-12.975591" lon="45.183830"/>
    <trkpt lat="-12.975598" lon="45.183638"/>
    <trkpt lat="-12.975604" lon="45.183446"/>
    <trkpt lat="-12.975613" lon="45.183256"/>
    <trkpt lat="-12.975630" lon="45.183067"/>
    <trkpt lat="-12.975660" lon="45.182881"/>
    <trkpt lat="-12.975703" lon="45.182698"/>
    <trkpt lat="-12.975761" lon="45.182520"/>
    <trkpt lat="-12.975831" lon="45.182344"/>
    <trkpt lat="-12.975910" lon="45.182171"/>
    <trkpt lat="-12.975994" lon="45.181998"/>
    <trkpt lat="-12.976077" lon="45.181826"/>
    <trkpt lat="-12.976155" lon="45.181652"/>
    <trkpt lat="-12.976223" lon="45.181476"/>
    <trkpt lat="-12.976279" lon="45.181297"/>
    <trkpt lat="-12.976323" lon="45.181115"/>
    <trkpt lat="-12.976355" lon="45.180930"/>
    <trkpt lat="-12.976378" lon="45.180742"/>
    <trkpt lat="-12.976396" lon="45.180554"/>
    <trkpt lat="-12.976413" lon="45.180365"/>
    <trkpt lat="-12.976433" lon="45.180176"/>
    <trkpt lat="-12.976458" lon="45.179990"/>
    <trkpt lat="-12.976492" lon="45.179805"/>
    <trkpt lat="-12.976535" lon="45.179622"/>
    <trkpt lat="-12.976585" lon="45.179442"/>
    <trkpt lat="-12.976642" lon="45.179263"/>
    <trkpt lat="-12.976701" lon="45.179084"/>
    <trkpt lat="-12.976760" lon="45.178906"/>
    <trkpt lat="-12.976817" lon="45.178727"/>
    <trkpt lat="-12.976870" lon="45.178547"/>
    <trkpt lat="-12.976917" lon="45.178366"/>
    <trkpt lat="-12.976960" lon="45.178183"/>
    <trkpt lat="-12.977000" lon="45.178000"/>
    <trkpt lat="-12.976875" lon="45.177867"/>
    <trkpt lat="-12.976750" lon="45.177734"/>
    <trkpt lat="-12.976621" lon="45.177604"/>
    <trkpt lat="-12.976490" lon="45.177478"/>
    <trkpt lat="-12.976355" lon="45.177354"/>
    <trkpt lat="-12.976218" lon="45.177234"/>
    <trkpt lat="-12.976078" lon="45.177115"/>
    <trkpt lat="-12.975939" lon="45.176996"/>
    <trkpt lat="-12.975802" lon="45.176875"/>
    <trkpt lat="-12.975669" lon="45.176750"/>
    <trkpt lat="-12.975541" lon="45.176620"/>
    <trkpt lat="-12.975420" lon="45.176484"/>
    <trkpt lat="-12.975304" lon="45.176341"/>
    <trkpt lat="-12.975192" lon="45.176195"/>
    <trkpt lat="-12.975083" lon="45.176046"/>
    <trkpt lat="-12.974974" lon="45.175897"/>
    <trkpt lat="-12.974862" lon="45.175751"/>
    <trkpt lat="-12.974743" lon="45.175612"/>
    <trkpt lat="-12.974617" lon="45.175480"/>
    <trkpt lat="-12.974482" lon="45.175356"/>
    <trkpt lat="-12.974339" lon="45.175242"/>
    <trkpt lat="-12.974188" lon="45.175134"/>
    <trkpt lat="-12.974033" lon="45.175031"/>
    <trkpt lat="-12.973877" lon="45.174929"/>
    <trkpt lat="-12.973723" lon="45.174825"/>
    <trkpt lat="-12.973574" lon="45.174716"/>
    <trkpt lat="-12.973434" lon="45.174598"/>
    <trkpt lat="-12.973304" lon="45.174470"/>
    <trkpt lat="-12.973185" lon="45.174332"/>
    <trkpt lat="-12.973074" lon="45.174184"/>
    <trkpt lat="-12.972970" lon="45.174030"/>
    <trkpt lat="-12.972871" lon="45.173871"/>
    <trkpt lat="-12.972770" lon="45.173713"/>
    <trkpt lat="-12.972667" lon="45.173559"/>
    <trkpt lat="-12.972556" lon="45.173412"/>
    <trkpt lat="-12.972436" lon="45.173274"/>
    <trkpt lat="-12.972306" lon="45.173146"/>
    <trkpt lat="-12.972166" lon="45.173028"/>
    <trkpt lat="-12.972018" lon="45.172918"/>
    <trkpt lat="-12.971865" lon="45.172813"/>
    <trkpt lat="-12.971709" lon="45.172710"/>
    <trkpt lat="-12.971556" lon="45.172606"/>
    <trkpt lat="-12.971407" lon="45.172497"/>
    <trkpt lat="-12.971264" lon="45.172381"/>
    <trkpt lat="-12.971130" lon="45.172257"/>
    <trkpt lat="-12.971004" lon="45.172125"/>
    <trkpt lat="-12.970885" lon="45.171986"/>
    <trkpt lat="-12.970771" lon="45.171842"/>
    <trkpt lat="-12.970660" lon="45.171695"/>
    <trkpt lat="-12.970549" lon="45.171548"/>
    <trkpt lat="-12.970435" lon="45.171403"/>
    <trkpt lat="-12.970317" lon="45.171263"/>
    <trkpt lat="-12.970194" lon="45.171129"/>
    <trkpt lat="-12.970065" lon="45.170999"/>
    <trkpt lat="-12.969932" lon="45.170874"/>
    <trkpt lat="-12.969796" lon="45.170752"/>
    <trkpt lat="-12.969659" lon="45.170632"/>
    <trkpt lat="-12.969522" lon="45.170511"/>
    <trkpt lat="-12.969387" lon="45.170387"/>
    <trkpt lat="-12.969255" lon="45.170261"/>
    <trkpt lat="-12.969126" lon="45.170132"/>
    <trkpt lat="-12.969000" lon="45.170000"/>
    <trkpt lat="-12.968829" lon="45.169939"/>
    <trkpt lat="-12.968658" lon="45.169878"/>
    <trkpt lat="-12.968487" lon="45.169815"/>
    <trkpt lat="-12.968319" lon="45.169748"/>
    <trkpt lat="-12.968151" lon="45.169677"/>
    <trkpt lat="-12.967986" lon="45.169602"/>
    <trkpt lat="-12.967821" lon="45.169524"/>
    <trkpt lat="-12.967658" lon="45.169444"/>
    <trkpt lat="-12.967494" lon="45.169365"/>
    <trkpt lat="-12.967328" lon="45.169289"/>
    <trkpt lat="-12.967161" lon="45.169219"/>
    <trkpt lat="-12.966990" lon="45.169156"/>
    <trkpt lat="-12.966817" lon="45.169101"/>
    <trkpt lat="-12.966640" lon="45.169053"/>
    <trkpt lat="-12.966462" lon="45.169010"/>
    <trkpt lat="-12.966283" lon="45.168970"/>
    <trkpt lat="-12.966104" lon="45.168928"/>
    <trkpt lat="-12.965927" lon="45.168882"/>
    <trkpt lat="-12.965753" lon="45.168828"/>
    <trkpt lat="-12.965584" lon="45.168764"/>
    <trkpt lat="-12.965418" lon="45.168688"/>
    <trkpt lat="-12.965257" lon="45.168602"/>
    <trkpt lat="-12.965099" lon="45.168507"/>
    <trkpt lat="-12.964943" lon="45.168407"/>
    <trkpt lat="-12.964787" lon="45.168306"/>
    <trkpt lat="-12.964631" lon="45.168209"/>
    <trkpt lat="-12.964471" lon="45.168119"/>
    <trkpt lat="-12.964306" lon="45.168040"/>
    <trkpt lat="-12.964137" lon="45.167975"/>
    <trkpt lat="-12.963963" lon="45.167922"/>
    <trkpt lat="-12.963783" lon="45.167882"/>
    <trkpt lat="-12.963601" lon="45.167850"/>
    <trkpt lat="-12.963417" lon="45.167822"/>
    <trkpt lat="-12.963233" lon="45.167794"/>
    <trkpt lat="-12.963051" lon="45.167760"/>
    <trkpt lat="-12.962873" lon="45.167717"/>
    <trkpt lat="-12.962700" lon="45.167661"/>
    <trkpt lat="-12.962532" lon="45.167592"/>
    <trkpt lat="-12.962369" lon="45.167510"/>
    <trkpt lat="-12.962210" lon="45.167417"/>
    <trkpt lat="-12.962054" lon="45.167317"/>
    <trkpt lat="-12.961900" lon="45.167214"/>
    <trkpt lat="-12.961744" lon="45.167113"/>
    <trkpt lat="-12.961586" lon="45.167019"/>
    <trkpt lat="-12.961424" lon="45.166935"/>
    <trkpt lat="-12.961258" lon="45.166861"/>
    <trkpt lat="-12.961087" lon="45.166800"/>
    <trkpt lat="-12.960911" lon="45.166749"/>
    <trkpt lat="-12.960733" lon="45.166707"/>
    <trkpt lat="-12.960553" lon="45.166668"/>
    <trkpt lat="-12.960373" lon="45.166631"/>
    <trkpt lat="-12.960194" lon="45.166590"/>
    <trkpt lat="-12.960017" lon="45.166542"/>
    <trkpt lat="-12.959844" lon="45.166487"/>
    <trkpt lat="-12.959674" lon="45.166423"/>
    <trkpt lat="-12.959507" lon="45.166351"/>
    <trkpt lat="-12.959343" lon="45.166273"/>
    <trkpt lat="-12.959180" lon="45.166191"/>
    <trkpt lat="-12.959017" lon="45.166108"/>
    <trkpt lat="-12.958854" lon="45.166026"/>
    <trkpt lat="-12.958690" lon="45.165948"/>
    <trkpt lat="-12.958523" lon="45.165876"/>
    <trkpt lat="-12.958355" lon="45.165808"/>
    <trkpt lat="-12.958184" lon="45.165744"/>
    <trkpt lat="-12.958013" lon="45.165684"/>
    <trkpt lat="-12.957842" lon="45.165624"/>
    <trkpt lat="-12.957670" lon="45.165563"/>
    <trkpt lat="-12.957500" lon="45.165500"/>
  </trkseg></trk>
</gpx>
